CompanyName,first,last,address,city,state,zip
Alphacan,Lulu,Sutton,32 Kire Circle,Emcuso,CT,57097
Aptechnology,Ryan,Hale,30 Juba Trail,Suggijsud,PA,83247
Baseelectrics,Robert,Dawson,42 Totgiz Way,Ehnuskuj,IL,78447
Bigtom,Rosa,Greer,50 Orabo Key,Howdotab,IA,98698
Bluecity,Gilbert,Newton,56 Omvi Square,Pohuda,OH,69191
Codeice,Nancy,Hawkins,39 Pava Way,Iridupdan,NM,88940
Contexon,Lena,Stokes,34 Ikizaj Terrace,Jelguga,IN,76685
damron,Troy,Wise,23 Fera Boulevard,Ibaokizaj,AK,63453
Dinghigh,Janie,Crawford,34 Inowaz Mill,Utagefhod,SC,84388
Doublefind,Harvey,Porter,27 Bipem Manor,Fosagta,MO,76708
Drill-plex,Addie,Saunders,45 Unehe Turnpike,Jihakun,LA,71473
E-hex,Darrell,Weber,63 Femda Manor,Diwraben,KY,29897
E-zumplex,Bradley,Weber,59 Zukob Mill,Lopnaeto,OR,48499
Fasecorporation,Rosetta,McGee,51 Laal Grove,Titnubo,TX,27572
fix-city,Bessie,Weaver,59 Ceujo Lane,Vebiwre,KY,98418
Fixzap,Matilda,Brady,34 Disisa Manor,Honeof,MA,77601
Freefix,Jane,Olson,48 Tacer Point,Sewvazbap,PA,34544
Freshtech,David,Gordon,61 Bami Square,Urpoldap,NE,37930
Funit,Gordon,Aguilar,20 Diwa Pass,Hezsirdi,DE,35817
ganz-con,Brett,Olson,61 Ziah View,Cefigane,TX,76800
Geojiin,Elizabeth,McCarthy,29 Moboj Manor,Irsujfuk,AZ,81288
Goldenplanet,Fannie,Cole,24 Pekop Ridge,Dejajra,SD,58892
Goldentaxon,Ray,Hardy,28 Igira Drive,Haruzoezi,NC,61911
Groovehex,Ophelia,Lewis,55 Gufcag Path,Silhihfir,SD,73889
Groovetam,Marc,Barnes,57 Zubu Place,Galuhve,CO,82730
hex-ware,Owen,Atkins,27 Jairo Way,Upopoit,PA,59943
Highcorporation,Edwin,Simmons,25 Harniw Boulevard,Bidadwu,LA,59753
hotfan,Mario,Bennett,32 Lehziv Lane,Goltudem,NV,87418
Hotit,Devin,Patterson,33 Vawkaz Park,Besrongev,IA,73868
Iceity,Robert,Underwood,39 Wuhew Place,Witmuhho,UT,55791
Inflex,Bernard,Barnes,29 Jiwohe Glen,Cemtomok,DC,97748
Isfax,Chester,Burns,40 Atfer River,Lihsatgak,WV,42131
Joylex,Rosa,Cortez,28 Goblor Court,Jufikfep,WY,42599
Joytraxlux,Francis,Padilla,53 Luben Drive,Irkote,TX,64541
K-find,Carl,Perry,59 Vahewu Ridge,Fopunhob,KS,24983
K-is,Flora,Lucas,33 Zolzat Circle,Cadsogu,CO,3769
Kantanace,Floyd,Martin,43 Bibzi Point,Mawuwof,SD,26403
Kin-techi,Chris,Lloyd,50 Rocwez Park,Elisadma,RI,33083
Labzoodex,Sally,Moore,52 Rafub Ridge,Gupsapdog,ME,71355
Medtrans,Rena,Rodriguez,33 Zuhe Point,Afgakzed,WV,55162
Move-plus,Carl,Todd,26 Vibti View,Uwiweb,FL,65790
Movetripfax,Dominic,Porter,42 Dimlem Turnpike,Hilimrob,ND,71700
Newphase,Martin,Hopkins,59 Itpoh Pike,Laonpo,MO,92933
Newtax,Betty,Newton,55 Olenom Plaza,Pedicupo,MO,53381
Nim-phase,Lois,Harrison,29 Etvos Point,Uwiiwedez,MI,61456
Nimtraxbam,Jay,Ortiz,37 Nafji Path,Rilfubib,MI,86435
Opengreen,Cory,Soto,25 Powul Ridge,Vufvova,NY,7240
Openlab,Nicholas,Arnold,48 Tevnop Way,Nofmaiw,AR,60179
Planetplus,Jordan,Jacobs,56 Lone Key,Saponsi,NY,65952
Plusstreet,Addie,Newton,47 Pogfo Park,Ekamadtoz,NV,7333
Quobetam,Jennie,Hanson,38 Mobi Heights,Corfibeb,CA,3947
quodexon,Mary,Powell,24 Bovpa Grove,Alukewjo,AK,77311
qvocom,Grace,Guzman,46 Hahrah Pass,Afodiwu,MN,6983
rankplus,Cynthia,Rodgers,57 Icawum Heights,Biwauc,MT,41542
Ranktrax,Lilly,Watson,27 Iblub Center,Pocwavo,SC,83477
Rantechi,David,Rhodes,43 Anowem River,Kenojbu,DC,46656
re-trax,Sophie,Murray,33 Zedec Highway,Eronakip,ME,67384
Redzumex,Hulda,Buchanan,45 Hereb View,Nozwocbu,VT,48343
Rezap,Mable,Stanley,53 Amolit Heights,Tiducuj,CT,89668
Ronzap,Myrtle,Sherman,25 Vorpol Loop,Totaheg,CT,2819
Runing,Susie,Gilbert,55 Ewicu Center,Moucov,FL,1455
Runtax,Gregory,Mitchell,41 Pevco Ridge,Ivloof,CO,59662
Saltbase,Johanna,Vaughn,42 Ziol Terrace,Jaegowo,WY,54477
Saltzaring,Verna,Moss,21 Arna Road,Tarohura,GA,94604
sandex,Marcus,Buchanan,20 Wujtu Court,Murubuz,MS,5647
Scotplanet,Gene,Cross,27 Sokca Pike,Giesocib,GA,42245
Scottech,Charlie,Moore,41 Rudit Avenue,Bufoluji,OR,96346
Silmedia,Belle,Crawford,24 Subfoj Court,Hindozfa,KY,82219
Singlenix,Charles,Mills,26 Enra Terrace,Tegajin,NV,36240
Solquote,Evelyn,Hayes,65 Wufiru Circle,Wokfulge,TN,6971
Son-cane,Catherine,Sims,61 Putun Loop,Acsapba,WA,38489
Spanlane,Adam,Coleman,39 Saddec Drive,Keahkov,OR,1012
stancode,Elsie,Ryan,19 Madtiz Turnpike,Toparis,GA,66219
Stimlax,Ophelia,Flowers,37 Vapoz Court,Movmimo,UT,52555
Streetmedia,Sadie,Dunn,24 Ejde Manor,Osodukon,FL,8287
Streetplus,Luis,Rowe,45 Anenip Mill,Utbiro,ME,16345
Subla,Derrick,Graves,45 Igjoz View,Guojdal,OH,49497
Supertom,Calvin,Diaz,24 Fucjet Key,Vucawvov,WV,98366
Tamron,Irene,Andrews,57 Aruzo Glen,Udozawhi,OR,66650
technocone,Hattie,Bennett,63 Rujzak Lane,Gezewudi,MT,36854
Tempex,Adrian,Moody,49 Jepu Avenue,Sazjares,WA,12211
Transzoom,Susan,Welch,38 Agji Heights,Jiduvboz,MA,33279
Truetouch,Leon,Casey,21 Poofu Parkway,Fovtanih,NJ,50527
U-flex,Harriett,Barnett,33 Licgah Glen,Sakceeso,HI,93036
Viaity,Clayton,McLaughlin,36 Epume Extension,Gehhanib,OH,37863
Villacore,Fred,Mathis,45 Bafo Park,Ebivudnev,OK,99527
Viva-cane,Winifred,Garcia,35 Ropweb Plaza,Wocitcu,FL,51094
Whitestreet,Bradley,Paul,54 Dotlog Drive,Etekalofi,VT,26605
x-zap,Mario,Wolfe,46 Tepag Grove,Hajofpe,TN,76790
Xx-job,Mattie,Cannon,62 Cofla Square,Zunuve,NM,32221
Yearsonjob,Celia,Copeland,51 Maliz Pass,Zucadah,KS,51162
Zapholding,Scott,Hogan,24 Ehhi River,Wamozja,WV,41258
Zaprunway,Tillie,Wallace,27 Sede Point,Hogzisu,ID,83717
Zerdamis,Adam,McCarthy,43 Sadju Turnpike,Gajosipu,FL,28584
zimcone,Ina,Patton,61 Wupme Lane,Objusut,MS,10003
Zontexon,Nellie,Stokes,28 Pewet Square,Gaccidfiw,IN,31506
zummacode,Andre,Norris,60 Rado Ridge,Neosemec,PA,40255
Zummacom,Mamie,Turner,55 Iljo Grove,Waivzod,MA,40432
Zummaplanet,Louisa,Carlson,55 Peoji Plaza,Macolul,WV,55791
Zuncan,Mable,Romero,56 Bahsin Center,Sozdobi,PA,63976
